[{"OBJECT_NAME":"STARLINK-1316","OBJECT_ID":"2020-019BH","EPOCH":"2026-03-09T13:03:15.183072","MEAN_MOTION":15.30197836,"ECCENTRICITY":0.00013151,"INCLINATION":53.1611,"RA_OF_ASC_NODE":129.9786,"ARG_OF_PERICENTER":83.5347,"MEAN_ANOMALY":276.5804,"EPHEMERIS_TYPE":0,"CLASSIFICATION_TYPE":"U","NORAD_CAT_ID":45415,"ELEMENT_SET_NO":999,"REV_AT_EPOCH":32997,"BSTAR":2.051712e-6,"MEAN_MOTION_DOT":-2.98e-6,"MEAN_MOTION_DDOT":0},{"OBJECT_NAME":"KSLV-II R\/B","OBJECT_ID":"2023-072H","EPOCH":"2026-03-09T20:13:26.441760","MEAN_MOTION":15.33109439,"ECCENTRICITY":0.00241884,"INCLINATION":97.4991,"RA_OF_ASC_NODE":274.152,"ARG_OF_PERICENTER":318.2938,"MEAN_ANOMALY":41.646,"EPHEMERIS_TYPE":0,"CLASSIFICATION_TYPE":"U","NORAD_CAT_ID":56750,"ELEMENT_SET_NO":999,"REV_AT_EPOCH":15516,"BSTAR":0.00028309532,"MEAN_MOTION_DOT":9.057e-5,"MEAN_MOTION_DDOT":0}]
